<?xml version="1.0" encoding="UTF-8"?>
<kml xmlns="http://www.opengis.net/kml/2.2" xmlns:gx="http://www.google.com/kml/ext/2.2" xmlns:kml="http://www.opengis.net/kml/2.2" xmlns:atom="http://www.w3.org/2005/Atom">
<Document id="document">
	<name>700_long</name>
	<gx:CascadingStyle kml:id="__managed_style_2D6A11A1083E7735DA54">
		<Style>
			<IconStyle>
				<scale>1.2</scale>
				<Icon>
					<href>https://earth.google.com/earth/document/icon?color=1976d2&amp;id=2000&amp;scale=4</href>
				</Icon>
				<hotSpot x="64" y="128" xunits="pixels" yunits="insetPixels"/>
			</IconStyle>
			<LabelStyle>
			</LabelStyle>
			<LineStyle>
				<color>ff2dc0fb</color>
				<width>3</width>
			</LineStyle>
			<PolyStyle>
				<color>40ffffff</color>
			</PolyStyle>
			<BalloonStyle>
				<displayMode>hide</displayMode>
			</BalloonStyle>
		</Style>
	</gx:CascadingStyle>
	<gx:CascadingStyle kml:id="__managed_style_104AB4E8B83E7735DA54">
		<Style>
			<IconStyle>
				<Icon>
					<href>https://earth.google.com/earth/document/icon?color=1976d2&amp;id=2000&amp;scale=4</href>
				</Icon>
				<hotSpot x="64" y="128" xunits="pixels" yunits="insetPixels"/>
			</IconStyle>
			<LabelStyle>
			</LabelStyle>
			<LineStyle>
				<color>ff2dc0fb</color>
				<width>2</width>
			</LineStyle>
			<PolyStyle>
				<color>40ffffff</color>
			</PolyStyle>
			<BalloonStyle>
				<displayMode>hide</displayMode>
			</BalloonStyle>
		</Style>
	</gx:CascadingStyle>
	<StyleMap id="__managed_style_0271D62B293E7735DA54">
		<Pair>
			<key>normal</key>
			<styleUrl>#__managed_style_104AB4E8B83E7735DA54</styleUrl>
		</Pair>
		<Pair>
			<key>highlight</key>
			<styleUrl>#__managed_style_2D6A11A1083E7735DA54</styleUrl>
		</Pair>
	</StyleMap>
	<Placemark id="0BAAE775673E773742D7">
		<name>700_long</name>
		<LookAt>
			<longitude>-83.03863792649263</longitude>
			<latitude>40.30069597642414</latitude>
			<altitude>285.7687602040016</altitude>
			<heading>0</heading>
			<tilt>0</tilt>
			<gx:fovy>30.00000348330345</gx:fovy>
			<range>359.3867797783242</range>
			<altitudeMode>absolute</altitudeMode>
		</LookAt>
		<styleUrl>#__managed_style_0271D62B293E7735DA54</styleUrl>
		<Polygon>
			<outerBoundaryIs>
				<LinearRing>
					<coordinates>
						-83.0381200468112,40.30073618994822,0 -83.03808423714918,40.30083704648623,0 -83.03809745633751,40.30119106998742,0 -83.03818353098461,40.301192244931,0 -83.03818315318208,40.30073400927414,0 -83.0381200468112,40.30073618994822,0 
					</coordinates>
				</LinearRing>
			</outerBoundaryIs>
		</Polygon>
	</Placemark>
</Document>
</kml>
